[{"CCSDS_OMM_VERS":"2.0","COMMENT":"GENERATED VIA SPACE-TRACK.ORG API","CREATION_DATE":"2021-08-12T02:29:51","ORIGINATOR":"18 SPCS","OBJECT_NAME":"GALILEO-FM2","OBJECT_ID":"2011-060B","CENTER_NAME":"EARTH","REF_FRAME":"TEME","TIME_SYSTEM":"UTC","MEAN_ELEMENT_THEORY":"SGP4","EPOCH":"2021-08-11T18:02:39.587712","MEAN_MOTION":"1.70475390","ECCENTRICITY":"0.00018750","INCLINATION":"56.8675","RA_OF_ASC_NODE":"29.7712","ARG_OF_PERICENTER":"359.4054","MEAN_ANOMALY":"180.7668","EPHEMERIS_TYPE":"0","CLASSIFICATION_TYPE":"U","NORAD_CAT_ID":"37847","ELEMENT_SET_NO":"999","REV_AT_EPOCH":"6094","BSTAR":"0.00000000000000","MEAN_MOTION_DOT":"-0.00000053","MEAN_MOTION_DDOT":"0.0000000000000","SEMIMAJOR_AXIS":"29600.159","PERIOD":"844.697","APOAPSIS":"23227.574","PERIAPSIS":"23216.474","OBJECT_TYPE":"PAYLOAD","RCS_SIZE":"LARGE","COUNTRY_CODE":"ESA","LAUNCH_DATE":"2011-10-21","SITE":"FRGUI","DECAY_DATE":null,"FILE":"3094490","GP_ID":"182598914","TLE_LINE0":"0 GALILEO-FM2","TLE_LINE1":"1 37847U 11060B   21223.75184708 -.00000053  00000-0  00000-0 0  9996","TLE_LINE2":"2 37847  56.8675  29.7712 0001875 359.4054 180.7668  1.70475390 60948"},{"CCSDS_OMM_VERS":"2.0","COMMENT":"GENERATED VIA SPACE-TRACK.ORG API","CREATION_DATE":"2021-08-11T22:46:11","ORIGINATOR":"18 SPCS","OBJECT_NAME":"GALILEO-FM2","OBJECT_ID":"2011-060B","CENTER_NAME":"EARTH","REF_FRAME":"TEME","TIME_SYSTEM":"UTC","MEAN_ELEMENT_THEORY":"SGP4","EPOCH":"2021-08-11T18:02:39.587712","MEAN_MOTION":"1.70475390","ECCENTRICITY":"0.00018750","INCLINATION":"56.8675","RA_OF_ASC_NODE":"29.7712","ARG_OF_PERICENTER":"359.4054","MEAN_ANOMALY":"180.7668","EPHEMERIS_TYPE":"0","CLASSIFICATION_TYPE":"U","NORAD_CAT_ID":"37847","ELEMENT_SET_NO":"999","REV_AT_EPOCH":"6106","BSTAR":"0.00000000000000","MEAN_MOTION_DOT":"-0.00000053","MEAN_MOTION_DDOT":"0.0000000000000","SEMIMAJOR_AXIS":"29600.159","PERIOD":"844.697","APOAPSIS":"23227.574","PERIAPSIS":"23216.474","OBJECT_TYPE":"PAYLOAD","RCS_SIZE":"LARGE","COUNTRY_CODE":"ESA","LAUNCH_DATE":"2011-10-21","SITE":"FRGUI","DECAY_DATE":null,"FILE":"3094405","GP_ID":"182585396","TLE_LINE0":"0 GALILEO-FM2","TLE_LINE1":"1 37847U 11060B   21223.75184708 -.00000053  00000-0  00000+0 0  9995","TLE_LINE2":"2 37847  56.8675  29.7712 0001875 359.4054 180.7668  1.70475390 61062"},{"CCSDS_OMM_VERS":"2.0","COMMENT":"GENERATED VIA SPACE-TRACK.ORG API","CREATION_DATE":"2021-08-12T17:37:16","ORIGINATOR":"18 SPCS","OBJECT_NAME":"GALILEO-FM2","OBJECT_ID":"2011-060B","CENTER_NAME":"EARTH","REF_FRAME":"TEME","TIME_SYSTEM":"UTC","MEAN_ELEMENT_THEORY":"SGP4","EPOCH":"2021-08-12T13:42:45.999936","MEAN_MOTION":"1.70475364","ECCENTRICITY":"0.00018610","INCLINATION":"56.8684","RA_OF_ASC_NODE":"29.7489","ARG_OF_PERICENTER":"359.1382","MEAN_ANOMALY":"323.9901","EPHEMERIS_TYPE":"0","CLASSIFICATION_TYPE":"U","NORAD_CAT_ID":"37847","ELEMENT_SET_NO":"999","REV_AT_EPOCH":"6095","BSTAR":"0.00000000000000","MEAN_MOTION_DOT":"-0.00000054","MEAN_MOTION_DDOT":"0.0000000000000","SEMIMAJOR_AXIS":"29600.162","PERIOD":"844.697","APOAPSIS":"23227.536","PERIAPSIS":"23216.519","OBJECT_TYPE":"PAYLOAD","RCS_SIZE":"LARGE","COUNTRY_CODE":"ESA","LAUNCH_DATE":"2011-10-21","SITE":"FRGUI","DECAY_DATE":null,"FILE":"3094993","GP_ID":"182635112","TLE_LINE0":"0 GALILEO-FM2","TLE_LINE1":"1 37847U 11060B   21224.57136574 -.00000054  00000-0  00000-0 0  9996","TLE_LINE2":"2 37847  56.8684  29.7489 0001861 359.1382 323.9901  1.70475364 60958"},{"CCSDS_OMM_VERS":"2.0","COMMENT":"GENERATED VIA SPACE-TRACK.ORG API","CREATION_DATE":"2021-08-13T17:36:49","ORIGINATOR":"18 SPCS","OBJECT_NAME":"GALILEO-FM2","OBJECT_ID":"2011-060B","CENTER_NAME":"EARTH","REF_FRAME":"TEME","TIME_SYSTEM":"UTC","MEAN_ELEMENT_THEORY":"SGP4","EPOCH":"2021-08-12T15:08:34.988928","MEAN_MOTION":"1.70475362","ECCENTRICITY":"0.00018600","INCLINATION":"56.8684","RA_OF_ASC_NODE":"29.7473","ARG_OF_PERICENTER":"359.2023","MEAN_ANOMALY":"0.5006","EPHEMERIS_TYPE":"0","CLASSIFICATION_TYPE":"U","NORAD_CAT_ID":"37847","ELEMENT_SET_NO":"999","REV_AT_EPOCH":"6095","BSTAR":"0.00000000000000","MEAN_MOTION_DOT":"-0.00000054","MEAN_MOTION_DDOT":"0.0000000000000","SEMIMAJOR_AXIS":"29600.162","PERIOD":"844.697","APOAPSIS":"23227.533","PERIAPSIS":"23216.522","OBJECT_TYPE":"PAYLOAD","RCS_SIZE":"LARGE","COUNTRY_CODE":"ESA","LAUNCH_DATE":"2011-10-21","SITE":"FRGUI","DECAY_DATE":null,"FILE":"3095469","GP_ID":"182665758","TLE_LINE0":"0 GALILEO-FM2","TLE_LINE1":"1 37847U 11060B   21224.63096052 -.00000054  00000-0  00000-0 0  9999","TLE_LINE2":"2 37847  56.8684  29.7473 0001860 359.2023   0.5006  1.70475362 60955"},{"CCSDS_OMM_VERS":"2.0","COMMENT":"GENERATED VIA SPACE-TRACK.ORG API","CREATION_DATE":"2021-08-16T18:32:28","ORIGINATOR":"18 SPCS","OBJECT_NAME":"GALILEO-FM2","OBJECT_ID":"2011-060B","CENTER_NAME":"EARTH","REF_FRAME":"TEME","TIME_SYSTEM":"UTC","MEAN_ELEMENT_THEORY":"SGP4","EPOCH":"2021-08-16T10:31:30.233568","MEAN_MOTION":"1.70475301","ECCENTRICITY":"0.00017470","INCLINATION":"56.8705","RA_OF_ASC_NODE":"29.6436","ARG_OF_PERICENTER":"357.7943","MEAN_ANOMALY":"178.7043","EPHEMERIS_TYPE":"0","CLASSIFICATION_TYPE":"U","NORAD_CAT_ID":"37847","ELEMENT_SET_NO":"999","REV_AT_EPOCH":"6102","BSTAR":"0.00000000000000","MEAN_MOTION_DOT":"-0.00000062","MEAN_MOTION_DDOT":"0.0000000000000","SEMIMAJOR_AXIS":"29600.169","PERIOD":"844.697","APOAPSIS":"23227.206","PERIAPSIS":"23216.863","OBJECT_TYPE":"PAYLOAD","RCS_SIZE":"LARGE","COUNTRY_CODE":"ESA","LAUNCH_DATE":"2011-10-21","SITE":"FRGUI","DECAY_DATE":null,"FILE":"3097703","GP_ID":"182855201","TLE_LINE0":"0 GALILEO-FM2","TLE_LINE1":"1 37847U 11060B   21228.43854437 -.00000062  00000-0  00000-0 0  9999","TLE_LINE2":"2 37847  56.8705  29.6436 0001747 357.7943 178.7043  1.70475301 61026"},{"CCSDS_OMM_VERS":"2.0","COMMENT":"GENERATED VIA SPACE-TRACK.ORG API","CREATION_DATE":"2021-08-16T18:26:11","ORIGINATOR":"18 SPCS","OBJECT_NAME":"GALILEO-FM2","OBJECT_ID":"2011-060B","CENTER_NAME":"EARTH","REF_FRAME":"TEME","TIME_SYSTEM":"UTC","MEAN_ELEMENT_THEORY":"SGP4","EPOCH":"2021-08-16T10:31:30.233568","MEAN_MOTION":"1.70475301","ECCENTRICITY":"0.00017470","INCLINATION":"56.8705","RA_OF_ASC_NODE":"29.6436","ARG_OF_PERICENTER":"357.7943","MEAN_ANOMALY":"178.7043","EPHEMERIS_TYPE":"0","CLASSIFICATION_TYPE":"U","NORAD_CAT_ID":"37847","ELEMENT_SET_NO":"999","REV_AT_EPOCH":"6114","BSTAR":"0.00000000000000","MEAN_MOTION_DOT":"-0.00000062","MEAN_MOTION_DDOT":"0.0000000000000","SEMIMAJOR_AXIS":"29600.169","PERIOD":"844.697","APOAPSIS":"23227.206","PERIAPSIS":"23216.863","OBJECT_TYPE":"PAYLOAD","RCS_SIZE":"LARGE","COUNTRY_CODE":"ESA","LAUNCH_DATE":"2011-10-21","SITE":"FRGUI","DECAY_DATE":null,"FILE":"3097654","GP_ID":"182840178","TLE_LINE0":"0 GALILEO-FM2","TLE_LINE1":"1 37847U 11060B   21228.43854437 -.00000062  00000-0  00000+0 0  9998","TLE_LINE2":"2 37847  56.8705  29.6436 0001747 357.7943 178.7043  1.70475301 61149"},{"CCSDS_OMM_VERS":"2.0","COMMENT":"GENERATED VIA SPACE-TRACK.ORG API","CREATION_DATE":"2021-08-17T17:40:15","ORIGINATOR":"18 SPCS","OBJECT_NAME":"GALILEO-FM2","OBJECT_ID":"2011-060B","CENTER_NAME":"EARTH","REF_FRAME":"TEME","TIME_SYSTEM":"UTC","MEAN_ELEMENT_THEORY":"SGP4","EPOCH":"2021-08-17T10:53:45.581856","MEAN_MOTION":"1.70475301","ECCENTRICITY":"0.00017130","INCLINATION":"56.8711","RA_OF_ASC_NODE":"29.6159","ARG_OF_PERICENTER":"357.1496","MEAN_ANOMALY":"82.5556","EPHEMERIS_TYPE":"0","CLASSIFICATION_TYPE":"U","NORAD_CAT_ID":"37847","ELEMENT_SET_NO":"999","REV_AT_EPOCH":"6104","BSTAR":"0.00000000000000","MEAN_MOTION_DOT":"-0.00000066","MEAN_MOTION_DDOT":"0.0000000000000","SEMIMAJOR_AXIS":"29600.169","PERIOD":"844.697","APOAPSIS":"23227.105","PERIAPSIS":"23216.964","OBJECT_TYPE":"PAYLOAD","RCS_SIZE":"LARGE","COUNTRY_CODE":"ESA","LAUNCH_DATE":"2011-10-21","SITE":"FRGUI","DECAY_DATE":null,"FILE":"3098399","GP_ID":"182914952","TLE_LINE0":"0 GALILEO-FM2","TLE_LINE1":"1 37847U 11060B   21229.45399979 -.00000066  00000-0  00000-0 0  9991","TLE_LINE2":"2 37847  56.8711  29.6159 0001713 357.1496  82.5556  1.70475301 61048"},{"CCSDS_OMM_VERS":"2.0","COMMENT":"GENERATED VIA SPACE-TRACK.ORG API","CREATION_DATE":"2021-08-19T19:48:51","ORIGINATOR":"18 SPCS","OBJECT_NAME":"GALILEO-FM2","OBJECT_ID":"2011-060B","CENTER_NAME":"EARTH","REF_FRAME":"TEME","TIME_SYSTEM":"UTC","MEAN_ELEMENT_THEORY":"SGP4","EPOCH":"2021-08-19T02:00:15.941376","MEAN_MOTION":"1.70475326","ECCENTRICITY":"0.00016730","INCLINATION":"56.8719","RA_OF_ASC_NODE":"29.5715","ARG_OF_PERICENTER":"356.0670","MEAN_ANOMALY":"3.7083","EPHEMERIS_TYPE":"0","CLASSIFICATION_TYPE":"U","NORAD_CAT_ID":"37847","ELEMENT_SET_NO":"999","REV_AT_EPOCH":"6106","BSTAR":"0.00000000000000","MEAN_MOTION_DOT":"-0.00000073","MEAN_MOTION_DDOT":"0.0000000000000","SEMIMAJOR_AXIS":"29600.167","PERIOD":"844.697","APOAPSIS":"23226.984","PERIAPSIS":"23217.079","OBJECT_TYPE":"PAYLOAD","RCS_SIZE":"LARGE","COUNTRY_CODE":"ESA","LAUNCH_DATE":"2011-10-21","SITE":"FRGUI","DECAY_DATE":null,"FILE":"3099725","GP_ID":"183037301","TLE_LINE0":"0 GALILEO-FM2","TLE_LINE1":"1 37847U 11060B   21231.08351784 -.00000073  00000-0  00000-0 0  9993","TLE_LINE2":"2 37847  56.8719  29.5715 0001673 356.0670   3.7083  1.70475326 61069"}]